{
  "type": "FeatureCollection",
  "features": [
    {
      "type": "Feature",
      "properties": {
        "norad_id": 66397,
        "name": "STARLINK-35510",
        "group": "last-30-days",
        "lat": -50.7821794493639,
        "lon": -113.02155471917051,
        "alt_km": 424.15586424163666,
        "timestamp": "2025-12-02T07:10:07.865551+00:00",
        "meta_object_name": "STARLINK-35510",
        "meta_object_id": "2025-257T",
        "meta_epoch": "2025-12-01T20:00:01.999008",
        "meta_mean_motion": 15.49232422,
        "meta_eccentricity": 0.0001129,
        "meta_inclination": 53.1588,
        "meta_ra_of_asc_node": 315.9416,
        "meta_arg_of_pericenter": 99.6234,
        "meta_mean_anomaly": 107.9468,
        "meta_ephemeris_type": 0,
        "meta_classification_type": "U",
        "meta_norad_cat_id": 66397,
        "meta_element_set_no": 999,
        "meta_rev_at_epoch": 474,
        "meta_bstar": 0.0022842,
        "meta_mean_motion_dot": 0.00128351,
        "meta_mean_motion_ddot": 0,
        "tle_line1": "1 66397U 25257T   25335.83335647  .00128351  00000+0  22842-2 0  9998",
        "tle_line2": "2 66397  53.1588 315.9416 0001129  99.6234 107.9468 15.49232422  4742"
      },
      "geometry": {
        "type": "Point",
        "coordinates": [
          -113.02155471917051,
          -50.7821794493639
        ]
      }
    },
    {
      "type": "Feature",
      "properties": {
        "norad_id": 66398,
        "name": "STARLINK-35642",
        "group": "last-30-days",
        "lat": -50.141662772148145,
        "lon": -110.18784560995515,
        "alt_km": 424.3184690376056,
        "timestamp": "2025-12-02T07:10:07.865561+00:00",
        "meta_object_name": "STARLINK-35642",
        "meta_object_id": "2025-257U",
        "meta_epoch": "2025-12-01T20:00:01.999008",
        "meta_mean_motion": 15.49229802,
        "meta_eccentricity": 0.0001435,
        "meta_inclination": 53.1588,
        "meta_ra_of_asc_node": 315.937,
        "meta_arg_of_pericenter": 98.7749,
        "meta_mean_anomaly": 110.7122,
        "meta_ephemeris_type": 0,
        "meta_classification_type": "U",
        "meta_norad_cat_id": 66398,
        "meta_element_set_no": 999,
        "meta_rev_at_epoch": 474,
        "meta_bstar": 0.0024886,
        "meta_mean_motion_dot": 0.00140076,
        "meta_mean_motion_ddot": 0,
        "tle_line1": "1 66398U 25257U   25335.83335647  .00140076  00000+0  24886-2 0  9997",
        "tle_line2": "2 66398  53.1588 315.9370 0001435  98.7749 110.7122 15.49229802  4740"
      },
      "geometry": {
        "type": "Point",
        "coordinates": [
          -110.18784560995515,
          -50.141662772148145
        ]
      }
    },
    {
      "type": "Feature",
      "properties": {
        "norad_id": 66399,
        "name": "STARLINK-35657",
        "group": "last-30-days",
        "lat": -49.431854100618175,
        "lon": -107.42523936050829,
        "alt_km": 424.33467754111916,
        "timestamp": "2025-12-02T07:10:07.865571+00:00",
        "meta_object_name": "STARLINK-35657",
        "meta_object_id": "2025-257V",
        "meta_epoch": "2025-12-01T20:00:01.999008",
        "meta_mean_motion": 15.49234504,
        "meta_eccentricity": 0.0001565,
        "meta_inclination": 53.1587,
        "meta_ra_of_asc_node": 315.9332,
        "meta_arg_of_pericenter": 99.4829,
        "meta_mean_anomaly": 111.9121,
        "meta_ephemeris_type": 0,
        "meta_classification_type": "U",
        "meta_norad_cat_id": 66399,
        "meta_element_set_no": 999,
        "meta_rev_at_epoch": 474,
        "meta_bstar": 0.0027193,
        "meta_mean_motion_dot": 0.00153393,
        "meta_mean_motion_ddot": 0,
        "tle_line1": "1 66399U 25257V   25335.83335647  .00153393  00000+0  27193-2 0  9998",
        "tle_line2": "2 66399  53.1587 315.9332 0001565  99.4829 111.9121 15.49234504  4746"
      },
      "geometry": {
        "type": "Point",
        "coordinates": [
          -107.42523936050829,
          -49.431854100618175
        ]
      }
    },
    {
      "type": "Feature",
      "properties": {
        "norad_id": 66400,
        "name": "STARLINK-35667",
        "group": "last-30-days",
        "lat": -47.84260692741885,
        "lon": -102.20606807128503,
        "alt_km": 424.5973480222483,
        "timestamp": "2025-12-02T07:10:07.865583+00:00",
        "meta_object_name": "STARLINK-35667",
        "meta_object_id": "2025-257W",
        "meta_epoch": "2025-12-01T20:00:01.999008",
        "meta_mean_motion": 15.49360287,
        "meta_eccentricity": 0.0001645,
        "meta_inclination": 53.1586,
        "meta_ra_of_asc_node": 315.9243,
        "meta_arg_of_pericenter": 93.1413,
        "meta_mean_anomaly": 122.0477,
        "meta_ephemeris_type": 0,
        "meta_classification_type": "U",
        "meta_norad_cat_id": 66400,
        "meta_element_set_no": 999,
        "meta_rev_at_epoch": 474,
        "meta_bstar": -0.0017308,
        "meta_mean_motion_dot": -0.00095716,
        "meta_mean_motion_ddot": 0,
        "tle_line1": "1 66400U 25257W   25335.83335647 -.00095716  00000+0 -17308-2 0  9994",
        "tle_line2": "2 66400  53.1586 315.9243 0001645  93.1413 122.0477 15.49360287  4743"
      },
      "geometry": {
        "type": "Point",
        "coordinates": [
          -102.20606807128503,
          -47.84260692741885
        ]
      }
    },
    {
      "type": "Feature",
      "properties": {
        "norad_id": 66401,
        "name": "STARLINK-35668",
        "group": "last-30-days",
        "lat": -46.94612863247853,
        "lon": -99.67420457134686,
        "alt_km": 424.2226271270374,
        "timestamp": "2025-12-02T07:10:07.865593+00:00",
        "meta_object_name": "STARLINK-35668",
        "meta_object_id": "2025-257X",
        "meta_epoch": "2025-12-01T20:00:01.999008",
        "meta_mean_motion": 15.49238081,
        "meta_eccentricity": 0.0001512,
        "meta_inclination": 53.1587,
        "meta_ra_of_asc_node": 315.9211,
        "meta_arg_of_pericenter": 100.432,
        "meta_mean_anomaly": 116.7135,
        "meta_ephemeris_type": 0,
        "meta_classification_type": "U",
        "meta_norad_cat_id": 66401,
        "meta_element_set_no": 999,
        "meta_rev_at_epoch": 474,
        "meta_bstar": 0.0025502,
        "meta_mean_motion_dot": 0.00143661,
        "meta_mean_motion_ddot": 0,
        "tle_line1": "1 66401U 25257X   25335.83335647  .00143661  00000+0  25502-2 0  9991",
        "tle_line2": "2 66401  53.1587 315.9211 0001512 100.4320 116.7135 15.49238081  4749"
      },
      "geometry": {
        "type": "Point",
        "coordinates": [
          -99.67420457134686,
          -46.94612863247853
        ]
      }
    },
    {
      "type": "Feature",
      "properties": {
        "norad_id": 66402,
        "name": "STARLINK-35644",
        "group": "last-30-days",
        "lat": -48.66147519950271,
        "lon": -104.75624096887307,
        "alt_km": 424.2688720942406,
        "timestamp": "2025-12-02T07:10:07.865603+00:00",
        "meta_object_name": "STARLINK-35644",
        "meta_object_id": "2025-257Y",
        "meta_epoch": "2025-12-01T20:00:01.999008",
        "meta_mean_motion": 15.49234206,
        "meta_eccentricity": 0.0001502,
        "meta_inclination": 53.1588,
        "meta_ra_of_asc_node": 315.9289,
        "meta_arg_of_pericenter": 100.3236,
        "meta_mean_anomaly": 112.9898,
        "meta_ephemeris_type": 0,
        "meta_classification_type": "U",
        "meta_norad_cat_id": 66402,
        "meta_element_set_no": 999,
        "meta_rev_at_epoch": 474,
        "meta_bstar": 0.0027119,
        "meta_mean_motion_dot": 0.00152964,
        "meta_mean_motion_ddot": 0,
        "tle_line1": "1 66402U 25257Y   25335.83335647  .00152964  00000+0  27119-2 0  9994",
        "tle_line2": "2 66402  53.1588 315.9289 0001502 100.3236 112.9898 15.49234206  4749"
      },
      "geometry": {
        "type": "Point",
        "coordinates": [
          -104.75624096887307,
          -48.66147519950271
        ]
      }
    },
    {
      "type": "Feature",
      "properties": {
        "norad_id": 66403,
        "name": "STARLINK-35602",
        "group": "last-30-days",
        "lat": -46.01653696982434,
        "lon": -97.28125292297048,
        "alt_km": 424.4999000112648,
        "timestamp": "2025-12-02T07:10:07.865615+00:00",
        "meta_object_name": "STARLINK-35602",
        "meta_object_id": "2025-257Z",
        "meta_epoch": "2025-12-01T20:00:01.999008",
        "meta_mean_motion": 15.49303811,
        "meta_eccentricity": 0.0001685,
        "meta_inclination": 53.1586,
        "meta_ra_of_asc_node": 315.9172,
        "meta_arg_of_pericenter": 98.0396,
        "meta_mean_anomaly": 121.0126,
        "meta_ephemeris_type": 0,
        "meta_classification_type": "U",
        "meta_norad_cat_id": 66403,
        "meta_element_set_no": 999,
        "meta_rev_at_epoch": 474,
        "meta_bstar": -0.00016622,
        "meta_mean_motion_dot": -9.68e-05,
        "meta_mean_motion_ddot": 0,
        "tle_line1": "1 66403U 25257Z   25335.83335647 -.00009680  00000+0 -16622-3 0  9991",
        "tle_line2": "2 66403  53.1586 315.9172 0001685  98.0396 121.0126 15.49303811  4745"
      },
      "geometry": {
        "type": "Point",
        "coordinates": [
          -97.28125292297048,
          -46.01653696982434
        ]
      }
    }
  ]
}